{"type": "FeatureCollection", "features": [ {"type": "Feature", "properties": {"norad_id": 28659, "name": "DIRECTV 8", "group": "intelsat", "lat": 0.003520848959204836, "lon": 33.444176579609994, "alt_km": 35790.35906101895, "timestamp": "2025-12-26T03:50:11.755261+00:00", "meta": {"OBJECT_NAME": "DIRECTV 8", "OBJECT_ID": "2005-019A", "EPOCH": "2025-12-25T07:36:38.659104", "MEAN_MOTION": 1.00271727, "ECCENTRICITY": 0.0003055, "INCLINATION": 0.0173, "RA_OF_ASC_NODE": 36.9805, "ARG_OF_PERICENTER": 247.0732, "MEAN_ANOMALY": 165.1455, "EPHEMERIS_TYPE": 0, "CLASSIFICATION_TYPE": "U", "NORAD_CAT_ID": 28659, "ELEMENT_SET_NO": 999, "REV_AT_EPOCH": 7533, "BSTAR": 0, "MEAN_MOTION_DOT": 2.2e-07, "MEAN_MOTION_DDOT": 0}, "tle": {"line1": "1 28659U 05019A   25359.31711411  .00000022  00000+0  00000+0 0  9990", "line2": "2 28659   0.0173  36.9805 0003055 247.0732 165.1455  1.00271727 75334"}}, "geometry": {"type": "Point", "coordinates": [33.444176579609994, 0.003520848959204836]}}, {"type": "Feature", "properties": {"norad_id": 28702, "name": "GALAXY 28 (G-28)", "group": "intelsat", "lat": -0.48375406118496644, "lon": 71.0623071770799, "alt_km": 35709.07542088161, "timestamp": "2025-12-26T03:50:11.755273+00:00", "meta": {"OBJECT_NAME": "GALAXY 28 (G-28)", "OBJECT_ID": "2005-022A", "EPOCH": "2025-12-25T06:15:34.001280", "MEAN_MOTION": 1.00599998, "ECCENTRICITY": 0.0003524, "INCLINATION": 2.8519, "RA_OF_ASC_NODE": 81.1358, "ARG_OF_PERICENTER": 159.6201, "MEAN_ANOMALY": 224.7014, "EPHEMERIS_TYPE": 0, "CLASSIFICATION_TYPE": "U", "NORAD_CAT_ID": 28702, "ELEMENT_SET_NO": 999, "REV_AT_EPOCH": 5023, "BSTAR": 0, "MEAN_MOTION_DOT": -2.29e-06, "MEAN_MOTION_DDOT": 0}, "tle": {"line1": "1 28702U 05022A   25359.26081020 -.00000229  00000+0  00000+0 0  9993", "line2": "2 28702   2.8519  81.1358 0003524 159.6201 224.7014  1.00599998 50230"}}, "geometry": {"type": "Point", "coordinates": [71.0623071770799, -0.48375406118496644]}}, {"type": "Feature", "properties": {"norad_id": 29236, "name": "GALAXY 16 (G-16)", "group": "intelsat", "lat": -0.003655983799798678, "lon": 53.45342445700926, "alt_km": 35794.94788366646, "timestamp": "2025-12-26T03:50:11.755286+00:00", "meta": {"OBJECT_NAME": "GALAXY 16 (G-16)", "OBJECT_ID": "2006-023A", "EPOCH": "2025-12-25T10:42:38.666304", "MEAN_MOTION": 1.00269688, "ECCENTRICITY": 0.0002737, "INCLINATION": 0.0046, "RA_OF_ASC_NODE": 247.0299, "ARG_OF_PERICENTER": 30.9577, "MEAN_ANOMALY": 237.8648, "EPHEMERIS_TYPE": 0, "CLASSIFICATION_TYPE": "U", "NORAD_CAT_ID": 29236, "ELEMENT_SET_NO": 999, "REV_AT_EPOCH": 7123, "BSTAR": 0, "MEAN_MOTION_DOT": 0, "MEAN_MOTION_DDOT": 0}, "tle": {"line1": "1 29236U 06023A   25359.44628086  .00000000  00000+0  00000+0 0  9993", "line2": "2 29236   0.0046 247.0299 0002737  30.9577 237.8648  1.00269688 71238"}}, "geometry": {"type": "Point", "coordinates": [53.45342445700926, -0.003655983799798678]}}, {"type": "Feature", "properties": {"norad_id": 29494, "name": "DIRECTV 9S", "group": "intelsat", "lat": -1.0279728489663278, "lon": 51.29066397238846, "alt_km": 35794.822334150784, "timestamp": "2025-12-26T03:50:11.755298+00:00", "meta": {"OBJECT_NAME": "DIRECTV 9S", "OBJECT_ID": "2006-043A", "EPOCH": "2025-12-25T16:00:17.788320", "MEAN_MOTION": 1.00271625, "ECCENTRICITY": 0.0003043, "INCLINATION": 1.9716, "RA_OF_ASC_NODE": 83.0746, "ARG_OF_PERICENTER": 196.6277, "MEAN_ANOMALY": 313.5922, "EPHEMERIS_TYPE": 0, "CLASSIFICATION_TYPE": "U", "NORAD_CAT_ID": 29494, "ELEMENT_SET_NO": 999, "REV_AT_EPOCH": 4964, "BSTAR": 0, "MEAN_MOTION_DOT": -9.2e-07, "MEAN_MOTION_DDOT": 0}, "tle": {"line1": "1 29494U 06043A   25359.66687255 -.00000092  00000+0  00000+0 0  9990", "line2": "2 29494   1.9716  83.0746 0003043 196.6277 313.5922  1.00271625 49642"}}, "geometry": {"type": "Point", "coordinates": [51.29066397238846, -1.0279728489663278]}}, {"type": "Feature", "properties": {"norad_id": 31307, "name": "GALAXY 17 (G-17)", "group": "intelsat", "lat": -0.6256398571653397, "lon": 67.48633026917672, "alt_km": 35809.62890053602, "timestamp": "2025-12-26T03:50:11.755310+00:00", "meta": {"OBJECT_NAME": "GALAXY 17 (G-17)", "OBJECT_ID": "2007-016B", "EPOCH": "2025-12-25T03:12:43.293888", "MEAN_MOTION": 1.00272001, "ECCENTRICITY": 0.00055995, "INCLINATION": 2.5292, "RA_OF_ASC_NODE": 82.144, "ARG_OF_PERICENTER": 173.1057, "MEAN_ANOMALY": 161.8394, "EPHEMERIS_TYPE": 0, "CLASSIFICATION_TYPE": "U", "NORAD_CAT_ID": 31307, "ELEMENT_SET_NO": 999, "REV_AT_EPOCH": 6805, "BSTAR": 0, "MEAN_MOTION_DOT": -1.86e-06, "MEAN_MOTION_DDOT": 0}, "tle": {"line1": "1 31307U 07016B   25359.13383442 -.00000186  00000+0  00000+0 0  9994", "line2": "2 31307   2.5292  82.1440 0005599 173.1057 161.8394  1.00272001 68051"}}, "geometry": {"type": "Point", "coordinates": [67.48633026917672, -0.6256398571653397]}}, {"type": "Feature", "properties": {"norad_id": 31862, "name": "DIRECTV 10", "group": "intelsat", "lat": 0.002142885386293296, "lon": 49.69166389552782, "alt_km": 35786.789838261546, "timestamp": "2025-12-26T03:50:11.755321+00:00", "meta": {"OBJECT_NAME": "DIRECTV 10", "OBJECT_ID": "2007-032A", "EPOCH": "2025-12-25T09:09:15.831072", "MEAN_MOTION": 1.00280696, "ECCENTRICITY": 7.66e-05, "INCLINATION": 0.0126, "RA_OF_ASC_NODE": 126.575, "ARG_OF_PERICENTER": 111.4706, "MEAN_ANOMALY": 250.6263, "EPHEMERIS_TYPE": 0, "CLASSIFICATION_TYPE": "U", "NORAD_CAT_ID": 31862, "ELEMENT_SET_NO": 999, "REV_AT_EPOCH": 4385, "BSTAR": 0, "MEAN_MOTION_DOT": -8.3e-07, "MEAN_MOTION_DDOT": 0}, "tle": {"line1": "1 31862U 07032A   25359.38143323 -.00000083  00000+0  00000+0 0  9993", "line2": "2 31862   0.0126 126.5750 0000766 111.4706 250.6263  1.00280696 43852"}}, "geometry": {"type": "Point", "coordinates": [49.69166389552782, 0.002142885386293296]}}, {"type": "Feature", "properties": {"norad_id": 32253, "name": "INTELSAT 11 (IS-11)", "group": "intelsat", "lat": -2.668870116328111, "lon": -40.773829121289545, "alt_km": 36117.06765808824, "timestamp": "2025-12-26T03:50:11.755351+00:00", "meta": {"OBJECT_NAME": "INTELSAT 11 (IS-11)", "OBJECT_ID": "2007-044B", "EPOCH": "2025-12-25T13:02:38.686848", "MEAN_MOTION": 0.99053085, "ECCENTRICITY": 0.0008616, "INCLINATION": 3.1116, "RA_OF_ASC_NODE": 80.8337, "ARG_OF_PERICENTER": 171.4467, "MEAN_ANOMALY": 207.1053, "EPHEMERIS_TYPE": 0, "CLASSIFICATION_TYPE": "U", "NORAD_CAT_ID": 32253, "ELEMENT_SET_NO": 999, "REV_AT_EPOCH": 6673, "BSTAR": 0, "MEAN_MOTION_DOT": -1.97e-06, "MEAN_MOTION_DDOT": 0}, "tle": {"line1": "1 32253U 07044B   25359.54350332 -.00000197  00000+0  00000+0 0  9995", "line2": "2 32253   3.1116  80.8337 0008616 171.4467 207.1053  0.99053085 66738"}}, "geometry": {"type": "Point", "coordinates": [-40.773829121289545, -2.668870116328111]}}, {"type": "Feature", "properties": {"norad_id": 32388, "name": "HORIZONS-2", "group": "intelsat", "lat": -0.13871306596247696, "lon": 78.66791408603275, "alt_km": 35805.785857412106, "timestamp": "2025-12-26T03:50:11.755364+00:00", "meta": {"OBJECT_NAME": "HORIZONS-2", "OBJECT_ID": "2007-063B", "EPOCH": "2025-12-25T09:17:22.555104", "MEAN_MOTION": 1.0026947, "ECCENTRICITY": 0.0004798, "INCLINATION": 2.1525, "RA_OF_ASC_NODE": 82.8237, "ARG_OF_PERICENTER": 196.873, "MEAN_ANOMALY": 239.9945, "EPHEMERIS_TYPE": 0, "CLASSIFICATION_TYPE": "U", "NORAD_CAT_ID": 32388, "ELEMENT_SET_NO": 999, "REV_AT_EPOCH": 6607, "BSTAR": 0, "MEAN_MOTION_DOT": -2.33e-06, "MEAN_MOTION_DDOT": 0}, "tle": {"line1": "1 32388U 07063B   25359.38706661 -.00000233  00000+0  00000+0 0  9998", "line2": "2 32388   2.1525  82.8237 0004798 196.8730 239.9945  1.00269470 66072"}}, "geometry": {"type": "Point", "coordinates": [78.66791408603275, -0.13871306596247696]}}, {"type": "Feature", "properties": {"norad_id": 32729, "name": "DIRECTV 11", "group": "intelsat", "lat": -0.005365679282442491, "lon": 53.19732060160045, "alt_km": 35793.378810166745, "timestamp": "2025-12-26T03:50:11.755376+00:00", "meta": {"OBJECT_NAME": "DIRECTV 11", "OBJECT_ID": "2008-013A", "EPOCH": "2025-12-24T22:53:59.758368", "MEAN_MOTION": 1.00260442, "ECCENTRICITY": 0.0001047, "INCLINATION": 0.0475, "RA_OF_ASC_NODE": 199.7105, "ARG_OF_PERICENTER": 11.4593, "MEAN_ANOMALY": 126.8496, "EPHEMERIS_TYPE": 0, "CLASSIFICATION_TYPE": "U", "NORAD_CAT_ID": 32729, "ELEMENT_SET_NO": 999, "REV_AT_EPOCH": 4384, "BSTAR": 0, "MEAN_MOTION_DOT": -1.03e-06, "MEAN_MOTION_DDOT": 0}, "tle": {"line1": "1 32729U 08013A   25358.95416387 -.00000103  00000+0  00000+0 0  9994", "line2": "2 32729   0.0475 199.7105 0001047  11.4593 126.8496  1.00260442 43842"}}, "geometry": {"type": "Point", "coordinates": [53.19732060160045, -0.005365679282442491]}}, {"type": "Feature", "properties": {"norad_id": 32951, "name": "GALAXY 18 (G-18)", "group": "intelsat", "lat": 0.022440348251351487, "lon": 29.480329036019935, "alt_km": 35790.219776268495, "timestamp": "2025-12-26T03:50:11.755389+00:00", "meta": {"OBJECT_NAME": "GALAXY 18 (G-18)", "OBJECT_ID": "2008-024A", "EPOCH": "2025-12-25T12:28:53.031072", "MEAN_MOTION": 1.00272109, "ECCENTRICITY": 0.0003072, "INCLINATION": 0.018, "RA_OF_ASC_NODE": 328.2801, "ARG_OF_PERICENTER": 312.0442, "MEAN_ANOMALY": 238.17, "EPHEMERIS_TYPE": 0, "CLASSIFICATION_TYPE": "U", "NORAD_CAT_ID": 32951, "ELEMENT_SET_NO": 999, "REV_AT_EPOCH": 4411, "BSTAR": 0, "MEAN_MOTION_DOT": 4.6e-07, "MEAN_MOTION_DDOT": 0}, "tle": {"line1": "1 32951U 08024A   25359.52005823  .00000046  00000+0  00000+0 0  9991", "line2": "2 32951   0.0180 328.2801 0003072 312.0442 238.1700  1.00272109 44116"}}, "geometry": {"type": "Point", "coordinates": [29.480329036019935, 0.022440348251351487]}}]}